IRIDIUM 150             
1 43257U 18030J   25322.86583260  .00000319  00000+0  10698-3 0  9994
2 43257  86.3997  18.3877 0002087 101.1190 259.0241 14.34214812400017
IRIDIUM 143             
1 43258U 18030K   25322.91657342  .00000334  00000+0  11239-3 0  9993
2 43258  86.4001  18.4508 0002056 104.4746 255.6678 14.34214842399955
IRIDIUM 161             
1 43478U 18047C   25322.88856936  .00000447  00000+0  12680-3 0  9997
2 43478  86.4520 176.3389 0002240  80.8979 279.2475 14.43277700394804
IRIDIUM 152             
1 43479U 18047D   25322.88928813  .00000340  00000+0  11418-3 0  9992
2 43479  86.3995 176.1991 0002085  82.1658 277.9774 14.34215701392340
IRIDIUM 147             
1 43480U 18047E   25322.54678133  .00000387  00000+0  13102-3 0  9997
2 43480  86.3995 176.3436 0002166  86.8966 273.2478 14.34218105392296
IRIDIUM 110             
1 43481U 18047F   25322.55311435  .00000385  00000+0  13040-3 0  9997
2 43481  86.3998 176.4270 0002381  75.0660 285.0799 14.34220194392284
IRIDIUM 162             
1 43482U 18047G   25322.53558498  .00000516  00000+0  14745-3 0  9997
2 43482  86.4520 176.3798 0001932  78.5346 281.6072 14.43283810394744
IRIDIUM 160             
1 43569U 18061A   25322.91757670  .00000121  00000+0  36171-4 0  9994
2 43569  86.3969 144.7045 0002262  85.4750 274.6704 14.34218200383230
